[Satellite]
VERSION=1.1
NAME=QZS-2  (MICHIBIKI-2)
NICKNAME=QZS-2  (MICHIBIKI-2)
TLE1=1 42738U 17028A   17178.33866950 -.00000269  00000-0  00000-0 0  9994
TLE2=2 42738  44.7339 289.4512 0752192 269.8401 334.4892  1.00255437   294
